[{"OBJECT_NAME":"ONEWEB-0377","OBJECT_ID":"2021-090AA","EPOCH":"2026-03-09T16:37:49.916640","MEAN_MOTION":13.20770307,"ECCENTRICITY":0.00017191,"INCLINATION":87.917,"RA_OF_ASC_NODE":294.3012,"ARG_OF_PERICENTER":82.0457,"MEAN_ANOMALY":278.0871,"EPHEMERIS_TYPE":0,"CLASSIFICATION_TYPE":"U","NORAD_CAT_ID":49303,"ELEMENT_SET_NO":999,"REV_AT_EPOCH":21738,"BSTAR":-8.9012444e-5,"MEAN_MOTION_DOT":-2.3e-7,"MEAN_MOTION_DDOT":0},{"OBJECT_NAME":"COSMOS 839 DEB","OBJECT_ID":"1976-067J","EPOCH":"2026-03-09T23:01:25.256640","MEAN_MOTION":12.18829728,"ECCENTRICITY":0.06844794,"INCLINATION":65.835,"RA_OF_ASC_NODE":271.7191,"ARG_OF_PERICENTER":191.4787,"MEAN_ANOMALY":245.7481,"EPHEMERIS_TYPE":0,"CLASSIFICATION_TYPE":"U","NORAD_CAT_ID":10415,"ELEMENT_SET_NO":999,"REV_AT_EPOCH":21095,"BSTAR":0.00043139042,"MEAN_MOTION_DOT":4.0e-7,"MEAN_MOTION_DDOT":0}]
